start=new Date('2023-03-20T00:00:00.000Z').valueOf();
sats=[{"MEAN_ELEMENT_THEORY":"SGP4","LAUNCH_DATE":"2021-12-02","EPOCH":"2023-03-19T11:17:26.797920","ARG_OF_PERICENTER":"85.2279","DECAY_DATE":null,"FILE":"3865071","APOAPSIS":"540.915","ELEMENT_SET_NO":"999","OBJECT_TYPE":"PAYLOAD","TLE_LINE2":"2 49725  53.2176 345.4507 0001719  85.2279 274.8909 15.08846398 72664","MEAN_MOTION":"15.08846398","RA_OF_ASC_NODE":"345.4507","INCLINATION":"53.2176","PERIAPSIS":"538.537","CENTER_NAME":"EARTH","TLE_LINE1":"1 49725U 21115B   23078.47044905  .00009540  00000-0  61655-3 0  9994","MEAN_MOTION_DDOT":"0.0000000000000","BSTAR":"0.00061655000000","GP_ID":"228447578","REV_AT_EPOCH":"7266","REF_FRAME":"TEME","TIME_SYSTEM":"UTC","OBJECT_ID":"2021-115B","MEAN_ANOMALY":"274.8909","COUNTRY_CODE":"US","SITE":"AFETR","ECCENTRICITY":"0.00017190","NORAD_CAT_ID":"49725","OBJECT_NAME":"STARLINK-3218","MEAN_MOTION_DOT":"0.00009540","SEMIMAJOR_AXIS":"6917.861","EPHEMERIS_TYPE":"0","PERIOD":"95.437","CLASSIFICATION_TYPE":"U","RCS_SIZE":"LARGE"},{"TLE_LINE1":"1 49726U 21115C   23078.48790818  .00023085  00000-0  14623-2 0  9999","MEAN_MOTION_DDOT":"0.0000000000000","BSTAR":"0.00146230000000","RA_OF_ASC_NODE":"355.2709","INCLINATION":"53.2167","CENTER_NAME":"EARTH","PERIAPSIS":"538.615","MEAN_MOTION":"15.08877728","OBJECT_TYPE":"PAYLOAD","TLE_LINE2":"2 49726  53.2167 355.2709 0001467  84.1642 275.9517 15.08877728 72523","ELEMENT_SET_NO":"999","FILE":"3865314","APOAPSIS":"540.645","EPOCH":"2023-03-19T11:42:35.266752","DECAY_DATE":null,"ARG_OF_PERICENTER":"84.1642","LAUNCH_DATE":"2021-12-02","MEAN_ELEMENT_THEORY":"SGP4","EPHEMERIS_TYPE":"0","PERIOD":"95.435","CLASSIFICATION_TYPE":"U","RCS_SIZE":"LARGE","NORAD_CAT_ID":"49726","OBJECT_NAME":"STARLINK-3237","MEAN_MOTION_DOT":"0.00023085","SEMIMAJOR_AXIS":"6917.765","ECCENTRICITY":"0.00014670","COUNTRY_CODE":"US","SITE":"AFETR","TIME_SYSTEM":"UTC","OBJECT_ID":"2021-115C","MEAN_ANOMALY":"275.9517","GP_ID":"228453940","REV_AT_EPOCH":"7252","REF_FRAME":"TEME"},{"SITE":"AFETR","COUNTRY_CODE":"US","ECCENTRICITY":"0.00015460","SEMIMAJOR_AXIS":"6917.849","MEAN_MOTION_DOT":"0.00010129","OBJECT_NAME":"STARLINK-3242","NORAD_CAT_ID":"49727","RCS_SIZE":"LARGE","CLASSIFICATION_TYPE":"U","PERIOD":"95.437","EPHEMERIS_TYPE":"0","REF_FRAME":"TEME","REV_AT_EPOCH":"7145","GP_ID":"228475019","MEAN_ANOMALY":"265.5997","OBJECT_ID":"2021-115D","TIME_SYSTEM":"UTC","TLE_LINE2":"2 49727  53.2166 354.0656 0001546  94.5172 265.5997 15.08850115 71451","OBJECT_TYPE":"PAYLOAD","MEAN_MOTION":"15.08850115","PERIAPSIS":"538.645","CENTER_NAME":"EARTH","INCLINATION":"53.2166","RA_OF_ASC_NODE":"354.0656","BSTAR":"0.00065337000000","MEAN_MOTION_DDOT":"0.0000000000000","TLE_LINE1":"1 49727U 21115D   23078.75655666  .00010129  00000-0  65337-3 0  9995","LAUNCH_DATE":"2021-12-02","MEAN_ELEMENT_THEORY":"SGP4","ARG_OF_PERICENTER":"94.5172","DECAY_DATE":null,"EPOCH":"2023-03-19T18:09:26.495424","APOAPSIS":"540.784","FILE":"3865354","ELEMENT_SET_NO":"999"},{"ARG_OF_PERICENTER":"64.0418","DECAY_DATE":null,"EPOCH":"2023-03-19T11:53:10.429440","MEAN_ELEMENT_THEORY":"SGP4","LAUNCH_DATE":"2021-12-02","ELEMENT_SET_NO":"999","FILE":"3865049","APOAPSIS":"540.785","MEAN_MOTION":"15.08835511","TLE_LINE2":"2 49728  53.2169 355.2364 0001483  64.0418 296.0727 15.08835511 71418","OBJECT_TYPE":"PAYLOAD","TLE_LINE1":"1 49728U 21115E   23078.49525960 -.00005944  00000-0 -35572-3 0  9999","MEAN_MOTION_DDOT":"0.0000000000000","BSTAR":"-0.00035572000000","RA_OF_ASC_NODE":"355.2364","PERIAPSIS":"538.733","CENTER_NAME":"EARTH","INCLINATION":"53.2169","TIME_SYSTEM":"UTC","MEAN_ANOMALY":"296.0727","OBJECT_ID":"2021-115E","GP_ID":"228443092","REV_AT_EPOCH":"7141","REF_FRAME":"TEME","ECCENTRICITY":"0.00014830","SITE":"AFETR","COUNTRY_CODE":"US","PERIOD":"95.438","EPHEMERIS_TYPE":"0","RCS_SIZE":"LARGE","CLASSIFICATION_TYPE":"U","NORAD_CAT_ID":"49728","OBJECT_NAME":"STARLINK-3240","MEAN_MOTION_DOT":"-0.00005944","SEMIMAJOR_AXIS":"6917.894"},{"OBJECT_TYPE":"PAYLOAD","TLE_LINE2":"2 49729  53.2184 353.4401 0000605  85.3622 274.7439 15.08183619 71470","MEAN_MOTION":"15.08183619","RA_OF_ASC_NODE":"353.4401","PERIAPSIS":"541.334","CENTER_NAME":"EARTH","INCLINATION":"53.2184","TLE_LINE1":"1 49729U 21115F   23078.89684707 -.00118596  00000-0 -76952-2 0  9993","MEAN_MOTION_DDOT":"0.0000000000000","BSTAR":"-0.00769520000000","LAUNCH_DATE":"2021-12-02","MEAN_ELEMENT_THEORY":"SGP4","ARG_OF_PERICENTER":"85.3622","DECAY_DATE":null,"EPOCH":"2023-03-19T21:31:27.586848","FILE":"3865354","APOAPSIS":"542.171","ELEMENT_SET_NO":"999","SITE":"AFETR","COUNTRY_CODE":"US","ECCENTRICITY":"0.00006050","MEAN_MOTION_DOT":"-0.00118596","NORAD_CAT_ID":"49729","OBJECT_NAME":"STARLINK-3251","SEMIMAJOR_AXIS":"6919.887","PERIOD":"95.479","EPHEMERIS_TYPE":"0","RCS_SIZE":"LARGE","CLASSIFICATION_TYPE":"U","REV_AT_EPOCH":"7147","GP_ID":"228476021","REF_FRAME":"TEME","TIME_SYSTEM":"UTC","MEAN_ANOMALY":"274.7439","OBJECT_ID":"2021-115F"},{"INCLINATION":"53.2163","CENTER_NAME":"EARTH","PERIAPSIS":"538.881","RA_OF_ASC_NODE":"353.4115","MEAN_MOTION_DDOT":"0.0000000000000","BSTAR":"0.00037523000000","TLE_LINE1":"1 49730U 21115G   23078.90471019  .00005691  00000-0  37523-3 0  9998","TLE_LINE2":"2 49730  53.2163 353.4115 0001206 103.5516 256.5610 15.08849762 71471","OBJECT_TYPE":"PAYLOAD","MEAN_MOTION":"15.08849762","APOAPSIS":"540.550","FILE":"3865354","ELEMENT_SET_NO":"999","MEAN_ELEMENT_THEORY":"SGP4","LAUNCH_DATE":"2021-12-02","EPOCH":"2023-03-19T21:42:46.960416","DECAY_DATE":null,"ARG_OF_PERICENTER":"103.5516","SEMIMAJOR_AXIS":"6917.851","MEAN_MOTION_DOT":"0.00005691","OBJECT_NAME":"STARLINK-3249","NORAD_CAT_ID":"49730","CLASSIFICATION_TYPE":"U","RCS_SIZE":"LARGE","EPHEMERIS_TYPE":"0","PERIOD":"95.437","COUNTRY_CODE":"US","SITE":"AFETR","ECCENTRICITY":"0.00012060","REF_FRAME":"TEME","REV_AT_EPOCH":"7147","GP_ID":"228476770","OBJECT_ID":"2021-115G","MEAN_ANOMALY":"256.5610","TIME_SYSTEM":"UTC"},{"TIME_SYSTEM":"UTC","MEAN_ANOMALY":"278.6187","OBJECT_ID":"2021-115H","GP_ID":"228475520","REV_AT_EPOCH":"7147","REF_FRAME":"TEME","PERIOD":"95.437","EPHEMERIS_TYPE":"0","RCS_SIZE":"LARGE","CLASSIFICATION_TYPE":"U","MEAN_MOTION_DOT":"0.00003124","OBJECT_NAME":"STARLINK-3228","NORAD_CAT_ID":"49731","SEMIMAJOR_AXIS":"6917.852","ECCENTRICITY":"0.00011510","SITE":"AFETR","COUNTRY_CODE":"US","ELEMENT_SET_NO":"999","FILE":"3865354","APOAPSIS":"540.513","ARG_OF_PERICENTER":"81.4936","DECAY_DATE":null,"EPOCH":"2023-03-19T21:36:06.120576","MEAN_ELEMENT_THEORY":"SGP4","LAUNCH_DATE":"2021-12-02","TLE_LINE1":"1 49731U 21115H   23078.90007084  .00003124  00000-0  21420-3 0  9994","MEAN_MOTION_DDOT":"0.0000000000000","BSTAR":"0.00021420000000","RA_OF_ASC_NODE":"353.4227","PERIAPSIS":"538.920","CENTER_NAME":"EARTH","INCLINATION":"53.2180","MEAN_MOTION":"15.08849383","TLE_LINE2":"2 49731  53.2180 353.4227 0001151  81.4936 278.6187 15.08849383 71477","OBJECT_TYPE":"PAYLOAD"},{"MEAN_ANOMALY":"274.9765","OBJECT_ID":"2021-115J","TIME_SYSTEM":"UTC","REF_FRAME":"TEME","GP_ID":"228475770","REV_AT_EPOCH":"7147","ECCENTRICITY":"0.00013230","SITE":"AFETR","COUNTRY_CODE":"US","RCS_SIZE":"LARGE","CLASSIFICATION_TYPE":"U","PERIOD":"95.437","EPHEMERIS_TYPE":"0","SEMIMAJOR_AXIS":"6917.846","NORAD_CAT_ID":"49732","OBJECT_NAME":"STARLINK-3246","MEAN_MOTION_DOT":"0.00003997","ARG_OF_PERICENTER":"85.1378","DECAY_DATE":null,"EPOCH":"2023-03-19T21:53:22.418592","LAUNCH_DATE":"2021-12-02","MEAN_ELEMENT_THEORY":"SGP4","ELEMENT_SET_NO":"999","APOAPSIS":"540.626","FILE":"3865354","MEAN_MOTION":"15.08851403","OBJECT_TYPE":"PAYLOAD","TLE_LINE2":"2 49732  53.2179 353.3397 0001323  85.1378 274.9765 15.08851403 71472","BSTAR":"0.00026898000000","MEAN_MOTION_DDOT":"0.0000000000000","TLE_LINE1":"1 49732U 21115J   23078.91206503  .00003997  00000-0  26898-3 0  9995","CENTER_NAME":"EARTH","PERIAPSIS":"538.795","INCLINATION":"53.2179","RA_OF_ASC_NODE":"353.3397"},{"MEAN_MOTION_DDOT":"0.0000000000000","BSTAR":"0.00032870000000","TLE_LINE1":"1 49733U 21115K   23078.90743125  .00004948  00000-0  32870-3 0  9995","INCLINATION":"53.2175","PERIAPSIS":"538.594","CENTER_NAME":"EARTH","RA_OF_ASC_NODE":"353.3831","MEAN_MOTION":"15.08847814","TLE_LINE2":"2 49733  53.2175 353.3831 0001630  84.4680 275.6498 15.08847814 71473","OBJECT_TYPE":"PAYLOAD","ELEMENT_SET_NO":"999","APOAPSIS":"540.849","FILE":"3865354","EPOCH":"2023-03-19T21:46:42.060000","ARG_OF_PERICENTER":"84.4680","DECAY_DATE":null,"MEAN_ELEMENT_THEORY":"SGP4","LAUNCH_DATE":"2021-12-02","CLASSIFICATION_TYPE":"U","RCS_SIZE":"LARGE","EPHEMERIS_TYPE":"0","PERIOD":"95.437","SEMIMAJOR_AXIS":"6917.857","MEAN_MOTION_DOT":"0.00004948","OBJECT_NAME":"STARLINK-3252","NORAD_CAT_ID":"49733","ECCENTRICITY":"0.00016300","COUNTRY_CODE":"US","SITE":"AFETR","OBJECT_ID":"2021-115K","MEAN_ANOMALY":"275.6498","TIME_SYSTEM":"UTC","REF_FRAME":"TEME","REV_AT_EPOCH":"7147","GP_ID":"228476522"},{"ELEMENT_SET_NO":"999","APOAPSIS":"540.463","FILE":"3865245","ARG_OF_PERICENTER":"91.7956","DECAY_DATE":null,"EPOCH":"2023-03-19T11:06:49.790592","MEAN_ELEMENT_THEORY":"SGP4","LAUNCH_DATE":"2021-12-02","MEAN_MOTION_DDOT":"0.0000000000000","BSTAR":"0.00025419000000","TLE_LINE1":"1 49734U 21115L   23078.46307628  .00003760  00000-0  25419-3 0  9993","CENTER_NAME":"EARTH","PERIAPSIS":"539.000","INCLINATION":"53.2173","RA_OF_ASC_NODE":"345.4078","MEAN_MOTION":"15.08844567","TLE_LINE2":"2 49734  53.2173 345.4078 0001057  91.7956 268.3157 15.08844567 72662","OBJECT_TYPE":"PAYLOAD","MEAN_ANOMALY":"268.3157","OBJECT_ID":"2021-115L","TIME_SYSTEM":"UTC","REF_FRAME":"TEME","REV_AT_EPOCH":"7266","GP_ID":"228451663","RCS_SIZE":"LARGE","CLASSIFICATION_TYPE":"U","PERIOD":"95.437","EPHEMERIS_TYPE":"0","SEMIMAJOR_AXIS":"6917.866","NORAD_CAT_ID":"49734","OBJECT_NAME":"STARLINK-3238","MEAN_MOTION_DOT":"0.00003760","ECCENTRICITY":"0.00010570","SITE":"AFETR","COUNTRY_CODE":"US"}];
